40534,NAVSTAR 73 (USA 260),2015,717.94,1630.0,+,53.4,Active,1,MEO,USA,USA,Commercial/Military,Navigation (Global or Regional Positioning),Delta,1 40534U 15013A   24020.56755950  .00000071  00000+0  00000+0 0  9992,2 40534  53.4013 240.5589 0086519  28.5069 332.0308  2.00574723 64207,2.00574723,0.0086519,MEO
40544,GSAT0203 (GALILEO 7),2015,844.7,723.0,+,56.92,Active,1,MEO,French Guiana,ESA,Commercial,Navigation (Global or Regional Positioning),Soyuz,1 40544U 15017A   24019.33669010 -.00000087  00000+0  00000+0 0  9999,2 40544  56.9196   5.5411 0005409 274.3005  85.6396  1.70475727 54208,1.70475727,0.0005409,MEO
40545,GSAT0204 (GALILEO 8),2015,844.7,723.0,+,56.93,Active,1,MEO,French Guiana,ESA,Commercial,Navigation (Global or Regional Positioning),Soyuz,1 40545U 15017B   24020.17727527 -.00000089  00000+0  00000+0 0  9994,2 40545  56.9261   5.5330 0004913 264.4560  95.4887  1.70475440 17268,1.7047544,0.0004913,MEO
40730,NAVSTAR 74 (USA 262),2015,717.94,1630.0,+,54.73,Active,1,MEO,USA,USA,Commercial/Military,Navigation (Global or Regional Positioning),Atlas,1 40730U 15033A   24020.23027037 -.00000076  00000+0  00000+0 0  9990,2 40730  54.7267 303.1264 0091517  16.0510 344.2598  2.00574706 62365,2.00574706,0.0091517,MEO
40889,GSAT0205 (GALILEO 9),2015,844.71,723.0,+,55.29,Active,1,MEO,French Guiana,ESA,Commercial,Navigation (Global or Regional Positioning),Soyuz,1 40889U 15045A   24019.94594390  .00000055  00000+0  00000+0 0  9991,2 40889  55.2893 245.8942 0006301  36.8709 323.2460  1.70473092 52022,1.70473092,0.0006301,MEO
40890,GSAT0206 (GALILEO 10),2015,844.71,723.0,+,55.29,Active,1,MEO,French Guiana,ESA,Commercial,Navigation (Global or Regional Positioning),Soyuz,1 40890U 15045B   24020.16658324  .00000056  00000+0  00000+0 0  9998,2 40890  55.2881 245.8836 0004275  34.8956 325.2067  1.70473227 52051,1.70473227,0.0004275,MEO
41019,NAVSTAR 75 (USA 265),2015,717.98,1630.0,+,56.28,Active,1,MEO,USA,USA,Commercial/Military,Navigation (Global or Regional Positioning),Atlas,1 41019U 15062A   24020.28195712 -.00000066  00000+0  00000+0 0  9993,2 41019  56.2761  64.9079 0094421 224.1003 135.1994  2.00562260 60204,2.0056226,0.0094421,MEO
41105,ELEKTRO-L 2,2015,1436.11,1800.0,+,4.46,Active,1,GSO,Kazakhstan,Russia/USSR,Government,Earth Observation,Zenit,1 41105U 15074A   24020.38647230 -.00000116  00000+0  00000+0 0  9996,2 41105   4.4620  81.2680 0003637 195.1254 327.5176  1.00271188 29695,1.00271188,0.0003637,GSO
41174,GSAT0209 (GALILEO 12),2015,844.7,723.0,+,55.36,Active,1,MEO,French Guiana,ESA,Commercial,Navigation (Global or Regional Positioning),Soyuz,1 41174U 15079A   24018.57714605 -.00000015  00000+0  00000+0 0  9994,2 41174  55.3587 125.4547 0002520 309.0026  50.9607  1.70474723 49767,1.70474723,0.000252,MEO
41175,GSAT0208 (GALILEO 11),2015,844.7,723.0,+,55.36,Active,1,MEO,French Guiana,ESA,Commercial,Navigation (Global or Regional Positioning),Soyuz,1 41175U 15079B   24019.38340132 -.00000023  00000+0  00000+0 0  9994,2 41175  55.3574 125.4304 0004323 292.0164  67.9203  1.70474220 50193,1.7047422,0.0004323,MEO
41328,NAVSTAR 76 (USA 266),2016,717.96,1630.0,+,55.07,Active,1,MEO,USA,USA,Commercial/Military,Navigation (Global or Regional Positioning),Atlas,1 41328U 16007A   24019.86738293 -.00000034  00000+0  00000+0 0  9990,2 41328  55.0671 124.3853 0076137 235.2928 123.9800  2.00568998 58200,2.00568998,0.0076137,MEO
41549,GSAT0211 (GALILEO 14),2016,844.71,723.0,+,55.44,Active,1,MEO,French Guiana,ESA,Commercial,Navigation (Global or Regional Positioning),Soyuz,1 41549U 16030A   24020.09229492  .00000056  00000+0  00000+0 0  9997,2 41549  55.4357 245.8808 0004173   8.7062 351.3752  1.70473307 47680,1.70473307,0.0004173,MEO
41550,GSAT0210 (GALILEO 13),2016,844.71,723.0,+,55.44,Active,1,MEO,French Guiana,ESA,Commercial,Navigation (Global or Regional Positioning),Soyuz,1 41550U 16030B   24019.79700369  .00000054  00000+0  00000+0 0  9999,2 41550  55.4354 245.8900 0002040 351.3572   8.7123  1.70473475 47676,1.70473475,0.000204,MEO
41860,GSAT0212 (GALILEO 16),2016,844.7,723.0,+,55.02,Active,1,MEO,French Guiana,ESA,Commercial,Navigation (Global or Regional Positioning),Ariane,1 41860U 16069B   24019.89852295 -.00000028  00000+0  00000+0 0  9994,2 41860  55.0204 125.4530 0001535 325.6450  34.3254  1.70474927 44668,1.70474927,0.0001535,MEO
41861,GSAT0213 (GALILEO 17),2016,844.71,723.0,+,55.02,Active,1,MEO,French Guiana,ESA,Commercial,Navigation (Global or Regional Positioning),Ariane,1 41861U 16069C   24019.09254131 -.00000021  00000+0  00000+0 0  9995,2 41861  55.0222 125.4817 0003757 260.6405  99.3006  1.70473399 44515,1.70473399,0.0003757,MEO
41862,GSAT0214 (GALILEO 18),2016,844.7,723.0,+,55.02,Active,1,MEO,French Guiana,ESA,Commercial,Navigation (Global or Regional Positioning),Ariane,1 41862U 16069D   24020.41234185 -.00000032  00000+0  00000+0 0  9993,2 41862  55.0221 125.4390 0005143 275.6498  84.2702  1.70473845 44668,1.70473845,0.0005143,MEO
41866,GOES 16,2016,1436.11,5192.0,+,0.08,Active,1,GSO,USA,USA,Government,Earth Observation,Atlas,1 41866U 16071A   24020.44599587 -.00000243  00000+0  00000+0 0  9997,2 41866   0.0758 251.5923 0001225  72.6635 240.3909  1.00270919 26298,1.00270919,0.0001225,GEO
42815,GSAT-17,2017,1436.1,3477.0,+,0.04,Active,1,GSO,French Guiana,India,Government,Communications,Ariane,1 42815U 17040B   24020.54899116 -.00000254  00000+0  00000+0 0  9993,2 42815   0.0414 256.9749 0006069  11.8421 141.7329  1.00271207 23979,1.00271207,0.0006069,GEO
43055,GSAT0215 (GALILEO 19),2017,844.7,715.0,+,55.41,Active,1,MEO,French Guiana,ESA,Commercial,Navigation (Global or Regional Positioning),Ariane,1 43055U 17079A   24019.72851724  .00000054  00000+0  00000+0 0  9990,2 43055  55.4133 245.7147 0001601  15.7842 344.2935  1.70473975 37996,1.70473975,0.0001601,MEO
43056,GSAT0216 (GALILEO 20),2017,844.7,715.0,+,55.41,Active,1,MEO,French Guiana,ESA,Commercial,Navigation (Global or Regional Positioning),Ariane,1 43056U 17079B   24018.84714737  .00000050  00000+0  00000+0 0  9991,2 43056  55.4137 245.7390 0002638 328.6407  31.4138  1.70474110 37997,1.7047411,0.0002638,MEO
43057,GSAT0217 (GALILEO 21),2017,844.7,715.0,+,55.41,Active,1,MEO,French Guiana,ESA,Commercial,Navigation (Global or Regional Positioning),Ariane,1 43057U 17079C   24019.65414260  .00000054  00000+0  00000+0 0  9994,2 43057  55.4110 245.7155 0002903 346.5131  13.5516  1.70473993 37995,1.70473993,0.0002903,MEO
43226,GOES 17,2018,1436.1,5211.0,B,0.03,Active,1,GSO,USA,USA,Government,Earth Observation,Atlas,1 43226U 18022A   24020.61109464 -.00000086  00000+0  00000+0 0  9992,2 43226   0.0288 174.8874 0001907 102.0526 317.8414  1.00271551 21619,1.00271551,0.0001907,GEO
43564,GSAT0221 (GALILEO 25),2018,844.7,715.0,+,57.3,Active,1,MEO,French Guiana,ESA,Commercial,Navigation (Global or Regional Positioning),Ariane,1 43564U 18060A   24020.36031043 -.00000089  00000+0  00000+0 0  9991,2 43564  57.2998   5.4763 0005936 287.3855  72.5499  1.70475595 34185,1.70475595,0.0005936,MEO
43565,GSAT0222 (GALILEO 26),2018,844.7,715.0,+,57.3,Active,1,MEO,French Guiana,ESA,Commercial,Navigation (Global or Regional Positioning),Ariane,1 43565U 18060B   24018.81883597 -.00000085  00000+0  00000+0 0  9994,2 43565  57.3032   5.5191 0004872 265.0015  94.9452  1.70475280 34202,1.7047528,0.0004872,MEO
43566,GSAT0219 (GALILEO 23),2018,844.7,715.0,+,57.3,Active,1,MEO,French Guiana,ESA,Commercial,Navigation (Global or Regional Positioning),Ariane,1 43566U 18060C   24020.21413502 -.00000089  00000+0  00000+0 0  9991,2 43566  57.3025   5.4836 0005225 293.8279  66.1179  1.70475613 34201,1.70475613,0.0005225,MEO
